#aV2022 12  5  0  0  0.00000000     288 DD+AD WGS84 FIT  NGA
## 2239  86400.00000000   300.00000000 59918 0.0000000000000
+   31     1  2  3  4  5  6  7  8  9 10 11 12 13 14 15 16 17
+         18 19 20 21 22 23 24 25 26 27 29 30 31 32  0  0  0
+          0  0  0  0  0  0  0  0  0  0  0  0  0  0  0  0  0
+          0  0  0  0  0  0  0  0  0  0  0  0  0  0  0  0  0
+          0  0  0  0  0  0  0  0  0  0  0  0  0  0  0  0  0
++         2  2  2  2  2  2  2  2  2  2  2  2  2  2  2  2  2
++         2  2  2  2  2  2  2  2  2  2  2  2  2  2  0  0  0
++         0  0  0  0  0  0  0  0  0  0  0  0  0  0  0  0  0
++         0  0  0  0  0  0  0  0  0  0  0  0  0  0  0  0  0
++         0  0  0  0  0  0  0  0  0  0  0  0  0  0  0  0  0
%c cc cc ccc ccc cccc cccc cccc cccc ccccc ccccc ccccc ccccc
%c cc cc ccc ccc cccc cccc cccc cccc ccccc ccccc ccccc ccccc
%f  0.0000000  0.000000000  0.00000000000  0.000000000000000
%f  0.0000000  0.000000000  0.00000000000  0.000000000000000
%i    0    0    0    0      0      0      0      0         0
%i    0    0    0    0      0      0      0      0         0
/*      NGA, ST. LOUIS,MO.                                  
/*   EPHEMERIS COMPUTED FROM 2 DAYS OF DATA                 
/*   EPOCHA v8 SMOOTHER                                     
/*   G2139 IERS2010 SATIGS SATAPC                           
*  2022 12  5 11 20  0.00000000
P  1 -11471.685805  20816.545905 -11794.971921    242.007386                    
V  1 -12017.583284   8444.289046  27641.339447     -0.053424                    
P  2   7382.345611 -22042.874855  13665.923292   -634.595409                    
V  2  12239.015408 -10790.266557 -24995.774071      0.019233                    
P  3  -4502.031338  14227.061996 -22095.548994   -375.071052                    
V  3 -26477.463799  -8164.687057    242.394295     -0.005351                    
P  4  -1736.375595  24782.845052  -9243.255230    -74.240342                    
V  4  -4821.297140 -11053.465567 -28826.230336      0.069937                    
P  5  18377.323583  -7750.641843  17424.310781   -106.896296                    
V  5  21299.570880   7163.620936 -18974.010254     -0.014490                    
P  6  18496.450891     20.573744 -19022.449466    533.703808                    
V  6 -17169.663864  17088.525863 -16539.409261      0.081677                    
P  7   3063.114155  17050.296388  20426.604104    278.666273                    
V  7 -19337.035474  16163.581645 -11306.500970     -0.051709                    
P  8  -8421.206715  17499.412694  17902.724621    -97.138404                    
V  8  -7473.384120 -21790.041654  18106.510697     -0.018372                    
P  9   7510.277759  25402.987693   1476.711528   -258.313882                    
V  9  -2471.046466   2663.294463 -31577.039807      0.059561                    
P 10 -23219.534439 -11622.530769   6495.480924    -14.769771                    
V 10   8170.688964    457.091201  30483.571029     -0.016750                    
P 11  22533.509945 -10010.282474  -9816.219404    -51.272242                    
V 11  -7993.864044   9896.782897 -28452.336794     -0.069487                    
P 12   6440.520131 -13788.621451 -22037.075432   -312.290656                    
V 12  25442.103406   9934.604062   1336.670785     -0.045138                    
P 13  13245.460881 -10009.127699  20511.988594    436.619074                    
V 13   3366.447289  26273.437415  10738.163413      0.066549                    
P 14  21478.841275  13489.010004   8091.551193    -73.088324                    
V 14 -10603.881464   -671.580803  29175.791778      0.059732                    
P 15   6440.724233 -18802.435341  17036.983821     -6.693868                    
V 15  10374.426967  20356.503121  18352.157869      0.032164                    
P 16 -22126.683054   1900.523488  14623.202627   -526.511305                    
V 16 -16840.586949  -8686.151201 -23433.572358      0.004003                    
P 17  12391.016973  18862.486031 -13496.765881    683.455819                    
V 17    948.421330  17972.559111  25247.655655      0.030564                    
P 18  -4447.308765 -15376.821625  21171.126384    -47.374425                    
V 18  20471.738995 -17416.877438  -8488.719817     -0.144264                    
P 19  15066.319507   8007.440662 -20655.334950    246.422902                    
V 19   2395.693347  25491.356672  11505.313231      0.050765                    
P 20  25436.935823  -1707.976961   7042.781520    465.596857                    
V 20   8474.006877   4447.598519 -29835.353474     -0.024900                    
P 21 -16543.002165  20090.644299  -1800.531665    154.560453                    
V 21  -4658.190257    -86.771652  32168.587259     -0.008607                    
P 22 -15334.618383  -4634.314807 -20793.649308    378.428407                    
V 22  -3235.069895 -27166.960920   8101.915766      0.077881                    
P 23 -15216.874465 -15243.652721  15628.830272     -0.373000                    
V 23  19504.262416   3643.300640  22400.457012      0.005166                    
P 24  12823.248175 -21986.265610  -7117.987927     29.587610                    
V 24   8649.181204  -3956.005943  29621.305213     -0.169525                    
P 25  -5628.794622 -16632.861810 -20304.157085    399.148252                    
V 25  24300.899112   6204.285551 -11720.224621      0.036072                    
P 26 -26240.525999  -3428.212118   3744.707262    237.659288                    
V 26  -3954.768717  -4307.587455 -30502.332882      0.009691                    
P 27 -13904.068992   5727.215476  21645.258876    161.288693                    
V 27  -6793.654482 -27188.583110   3195.567183     -0.100597                    
P 29  -3786.036768 -26243.187592   -315.417388   -571.924947                    
V 29   2352.534760     -4.686989 -32191.239232     -0.026245                    
P 30  13936.391754   8373.151250  21123.067678   -535.879986                    
V 30 -19400.461126  18319.126896   5306.005917      0.005601                    
P 31 -19988.150654    869.518948 -17850.749137   -202.318449                    
V 31  15628.865350 -15824.960256 -17982.360465     -0.011805                    
P 32 -14905.403660 -15622.459913 -15445.458877   -319.080736                    
V 32  -2727.942520 -19723.080642  22162.661251     -0.130104                    
EOF
